[
    {
        "Altitude(m)": 624790.7774262195,
        "Argument of Periapsis(deg)": 0.0,
        "Eccentricity": 0.0,
        "Inclination(deg)": 60.0,
        "Latitude(deg)": -59.14706212523147,
        "Longitude(deg)": 56.034733157565654,
        "Mean Anomaly(deg)": -81.81819999999996,
        "RAAN(deg)": 229.99999999999997,
        "Satellite Name": "Test1 1029",
        "Satellite Number": 1029,
        "Semi-Major Axis(m)": 6980739.136638005,
        "Time(s)": 0
    },
    {
        "Altitude(m)": 624737.4319562052,
        "Argument of Periapsis(deg)": 0.00010418945913296404,
        "Eccentricity": 0.0,
        "Inclination(deg)": 60.0,
        "Latitude(deg)": -58.994515788457186,
        "Longitude(deg)": 57.15423267056156,
        "Mean Anomaly(deg)": -81.1980938545381,
        "RAAN(deg)": 229.99957995086024,
        "Satellite Name": "Test1 1029",
        "Satellite Number": 1029,
        "Semi-Major Axis(m)": 6980739.136638005,
        "Time(s)": 10
    }
]